{
    "links": {
        "self": "http://www.neowsapp.com/rest/v1/neo/3892749?api_key=iIulBulltgU6a56xZRHN4H3l9WmuAYTsLGpBGhQ2"
    },
    "id": "3892749",
    "neo_reference_id": "3892749",
    "name": "(2019 VP4)",
    "designation": "2019 VP4",
    "nasa_jpl_url": "http://ssd.jpl.nasa.gov/sbdb.cgi?sstr=3892749",
    "absolute_magnitude_h": 24.4,
    "estimated_diameter": {
        "kilometers": {
            "estimated_diameter_min": 0.0350392641,
            "estimated_diameter_max": 0.0783501764
        },
        "meters": {
            "estimated_diameter_min": 35.0392641108,
            "estimated_diameter_max": 78.3501764334
        },
        "miles": {
            "estimated_diameter_min": 0.0217723826,
            "estimated_diameter_max": 0.0486845275
        },
        "feet": {
            "estimated_diameter_min": 114.9582192654,
            "estimated_diameter_max": 257.0543928497
        }
    },
    "is_potentially_hazardous_asteroid": false,
    "close_approach_data": [
        {
            "close_approach_date": "2019-10-19",
            "close_approach_date_full": "2019-Oct-19 13:26",
            "epoch_date_close_approach": 1571491560000,
            "relative_velocity": {
                "kilometers_per_second": "11.262794179",
                "kilometers_per_hour": "40546.0590445771",
                "miles_per_hour": "25193.7442991152"
            },
            "miss_distance": {
                "astronomical": "0.0722945455",
                "lunar": "28.1225781995",
                "kilometers": "10815110.019418085",
                "miles": "6720197.746356173"
            },
            "orbiting_body": "Earth"
        }
    ],
    "orbital_data": {
        "orbit_id": "1",
        "orbit_determination_date": "2019-11-07 19:42:41",
        "first_observation_date": "2019-11-04",
        "last_observation_date": "2019-11-08",
        "data_arc_in_days": 4,
        "observations_used": 20,
        "orbit_uncertainty": "8",
        "minimum_orbit_intersection": ".0383031",
        "jupiter_tisserand_invariant": "4.645",
        "epoch_osculation": "2458792.5",
        "eccentricity": ".3727636059026395",
        "semi_major_axis": "1.412395048296578",
        "inclination": "6.167744535919706",
        "ascending_node_longitude": "359.5183410808033",
        "orbital_period": "613.1019625684227",
        "perihelion_distance": ".8859055771345127",
        "perihelion_argument": "328.7817192390916",
        "aphelion_distance": "1.938884519458643",
        "perihelion_time": "2458733.717636848036",
        "mean_anomaly": "34.51571194790521",
        "mean_motion": ".5871780258081032",
        "equinox": "J2000",
        "orbit_class": {
            "orbit_class_type": "APO",
            "orbit_class_description": "Near-Earth asteroid orbits which cross the Earth’s orbit similar to that of 1862 Apollo",
            "orbit_class_range": "a (semi-major axis) > 1.0 AU; q (perihelion) < 1.017 AU"
        }
    },
    "is_sentry_object": false
}